STARLINK-2046           
1 47354U 21005F   26069.15088869  .00002606  00000+0  10010-3 0  9997
2 47354  53.1599  21.8209 0000974 106.3937 253.7171 15.30191174283649
STARLINK-2047           
1 47355U 21005G   26069.50002314  .00924006  00000+0  34415-1 0  9998
2 47355  53.1328   7.1303 0001832  67.1671 299.0457 15.24428170  5818
STARLINK-2049           
1 47356U 21005H   26069.36611388  .00002547  00000+0  18988-3 0  9996
2 47356  53.0548  28.5822 0001638  85.9097 274.2079 15.06394690283563
STARLINK-2050           
1 47357U 21005J   26069.50002314  .01506296  00000+0  72077-1 0  9994
2 47357  53.0921  58.2646 0001807 101.4193  78.3424 15.15266720  5822
STARLINK-2055           
1 47358U 21005K   26069.17718878 -.00002530  00000+0 -15104-3 0  9990
2 47358  53.0553  29.4211 0001337 109.5395 250.5738 15.06387807283531
STARLINK-2071           
1 47361U 21005N   26069.11915155 -.00001785  00000+0 -10100-3 0  9997
2 47361  53.0545  29.6947 0001602 119.4843 240.6306 15.06391612283526
STARLINK-2076           
1 47362U 21005P   26069.50002314  .00092470  00000+0  49720-2 0  9993
2 47362  53.0833  57.8525 0002013  57.5718  36.3805 15.14102511  5772
STARLINK-2081           
1 47366U 21005T   26069.50002314  .00081918  00000+0  46807-2 0  9995
2 47366  53.0747  57.9128 0001632 111.9101 147.9756 15.11994337  5818
STARLINK-2082           
1 47367U 21005U   26069.50002314  .00090060  00000+0  52405-2 0  9995
2 47367  53.0716  57.9330 0001833  58.8596  50.3062 15.11284151  5420
STARLINK-2084           
1 47368U 21005V   26069.50002314  .00090250  00000+0  50510-2 0  9992
2 47368  53.0786  57.8934 0001924  78.2497  92.3519 15.12684951  5824
STARLINK-2088           
1 47371U 21005Y   26069.35966664  .00001000  00000+0  86058-4 0  9999
2 47371  53.0560  58.6118 0001431  91.1481 268.9672 15.06391270283147
STARLINK-2092           
1 47373U 21005AA  26069.50002314  .00094576  00000+0  52915-2 0  9994
2 47373  53.0779  57.8971 0002221  58.9945  50.1938 15.12668472  5622
STARLINK-2093           
1 47374U 21005AB  26069.54477411  .00105563  00000+0  10335-2 0  9992
2 47374  53.0521  41.1430 0003714 116.2353 243.9043 15.65321205283404
STARLINK-2094           
1 47375U 21005AC  26069.50002314  .01420949  00000+0  75836-1 0  9990
2 47375  53.0755  57.9298 0000910 101.5283 208.6237 15.11537498  5819
STARLINK-2096           
1 47376U 21005AD  26069.50002314  .00087078  00000+0  48316-2 0  9996
2 47376  53.0798  57.8810 0000763 116.4815 201.1311 15.13014214  5817
STARLINK-2097           
1 47377U 21005AE  26069.37069937  .00006498  00000+0  45430-3 0  9998
2 47377  53.0564  58.5612 0001366  89.8565 270.2581 15.06434494283140
STARLINK-2098           
1 47378U 21005AF  26069.26162687 -.00001013  00000+0 -22080-4 0  9990
2 47378  53.1598  11.5089 0001277  88.0467 272.0680 15.30187581283801
