[{"OBJECT_NAME":"STARLINK-2046","OBJECT_ID":"2021-005F","EPOCH":"2026-03-10T03:37:16.782816","MEAN_MOTION":15.30191174,"ECCENTRICITY":9.749e-5,"INCLINATION":53.1599,"RA_OF_ASC_NODE":21.8209,"ARG_OF_PERICENTER":106.3937,"MEAN_ANOMALY":253.7171,"EPHEMERIS_TYPE":0,"CLASSIFICATION_TYPE":"U","NORAD_CAT_ID":47354,"ELEMENT_SET_NO":999,"REV_AT_EPOCH":28364,"BSTAR":0.00010010083,"MEAN_MOTION_DOT":2.606e-5,"MEAN_MOTION_DDOT":0},{"OBJECT_NAME":"STARLINK-2047","OBJECT_ID":"2021-005G","EPOCH":"2026-03-10T12:00:01.999296","MEAN_MOTION":15.2442817,"ECCENTRICITY":0.0001832,"INCLINATION":53.1328,"RA_OF_ASC_NODE":7.1303,"ARG_OF_PERICENTER":67.1671,"MEAN_ANOMALY":299.0457,"EPHEMERIS_TYPE":0,"CLASSIFICATION_TYPE":"U","NORAD_CAT_ID":47355,"ELEMENT_SET_NO":999,"REV_AT_EPOCH":581,"BSTAR":0.034415,"MEAN_MOTION_DOT":0.00924006,"MEAN_MOTION_DDOT":0},{"OBJECT_NAME":"STARLINK-2049","OBJECT_ID":"2021-005H","EPOCH":"2026-03-10T08:47:12.239232","MEAN_MOTION":15.0639469,"ECCENTRICITY":0.0001638,"INCLINATION":53.0548,"RA_OF_ASC_NODE":28.5822,"ARG_OF_PERICENTER":85.9097,"MEAN_ANOMALY":274.2079,"EPHEMERIS_TYPE":0,"CLASSIFICATION_TYPE":"U","NORAD_CAT_ID":47356,"ELEMENT_SET_NO":999,"REV_AT_EPOCH":28356,"BSTAR":0.00018988,"MEAN_MOTION_DOT":2.547e-5,"MEAN_MOTION_DDOT":0},{"OBJECT_NAME":"STARLINK-2050","OBJECT_ID":"2021-005J","EPOCH":"2026-03-10T12:00:01.999296","MEAN_MOTION":15.1526672,"ECCENTRICITY":0.0001807,"INCLINATION":53.0921,"RA_OF_ASC_NODE":58.2646,"ARG_OF_PERICENTER":101.4193,"MEAN_ANOMALY":78.3424,"EPHEMERIS_TYPE":0,"CLASSIFICATION_TYPE":"U","NORAD_CAT_ID":47357,"ELEMENT_SET_NO":999,"REV_AT_EPOCH":582,"BSTAR":0.072077,"MEAN_MOTION_DOT":0.01506296,"MEAN_MOTION_DDOT":0},{"OBJECT_NAME":"STARLINK-2055","OBJECT_ID":"2021-005K","EPOCH":"2026-03-10T04:15:09.110592","MEAN_MOTION":15.06387807,"ECCENTRICITY":0.00013378,"INCLINATION":53.0553,"RA_OF_ASC_NODE":29.4211,"ARG_OF_PERICENTER":109.5395,"MEAN_ANOMALY":250.5738,"EPHEMERIS_TYPE":0,"CLASSIFICATION_TYPE":"U","NORAD_CAT_ID":47358,"ELEMENT_SET_NO":999,"REV_AT_EPOCH":28353,"BSTAR":-0.00015103778,"MEAN_MOTION_DOT":-2.53e-5,"MEAN_MOTION_DDOT":0},{"OBJECT_NAME":"STARLINK-2071","OBJECT_ID":"2021-005N","EPOCH":"2026-03-10T02:51:34.693920","MEAN_MOTION":15.06391612,"ECCENTRICITY":0.00016028,"INCLINATION":53.0545,"RA_OF_ASC_NODE":29.6947,"ARG_OF_PERICENTER":119.4843,"MEAN_ANOMALY":240.6306,"EPHEMERIS_TYPE":0,"CLASSIFICATION_TYPE":"U","NORAD_CAT_ID":47361,"ELEMENT_SET_NO":999,"REV_AT_EPOCH":28352,"BSTAR":-0.00010100015,"MEAN_MOTION_DOT":-1.785e-5,"MEAN_MOTION_DDOT":0},{"OBJECT_NAME":"STARLINK-2076","OBJECT_ID":"2021-005P","EPOCH":"2026-03-10T12:00:01.999296","MEAN_MOTION":15.14102511,"ECCENTRICITY":0.0002013,"INCLINATION":53.0833,"RA_OF_ASC_NODE":57.8525,"ARG_OF_PERICENTER":57.5718,"MEAN_ANOMALY":36.3805,"EPHEMERIS_TYPE":0,"CLASSIFICATION_TYPE":"U","NORAD_CAT_ID":47362,"ELEMENT_SET_NO":999,"REV_AT_EPOCH":577,"BSTAR":0.004972,"MEAN_MOTION_DOT":0.0009247,"MEAN_MOTION_DDOT":0},{"OBJECT_NAME":"STARLINK-2081","OBJECT_ID":"2021-005T","EPOCH":"2026-03-10T12:00:01.999296","MEAN_MOTION":15.11994337,"ECCENTRICITY":0.0001632,"INCLINATION":53.0747,"RA_OF_ASC_NODE":57.9128,"ARG_OF_PERICENTER":111.9101,"MEAN_ANOMALY":147.9756,"EPHEMERIS_TYPE":0,"CLASSIFICATION_TYPE":"U","NORAD_CAT_ID":47366,"ELEMENT_SET_NO":999,"REV_AT_EPOCH":581,"BSTAR":0.0046807,"MEAN_MOTION_DOT":0.00081918,"MEAN_MOTION_DDOT":0},{"OBJECT_NAME":"STARLINK-2082","OBJECT_ID":"2021-005U","EPOCH":"2026-03-10T12:00:01.999296","MEAN_MOTION":15.11284151,"ECCENTRICITY":0.0001833,"INCLINATION":53.0716,"RA_OF_ASC_NODE":57.933,"ARG_OF_PERICENTER":58.8596,"MEAN_ANOMALY":50.3062,"EPHEMERIS_TYPE":0,"CLASSIFICATION_TYPE":"U","NORAD_CAT_ID":47367,"ELEMENT_SET_NO":999,"REV_AT_EPOCH":542,"BSTAR":0.0052405,"MEAN_MOTION_DOT":0.0009006,"MEAN_MOTION_DDOT":0},{"OBJECT_NAME":"STARLINK-2084","OBJECT_ID":"2021-005V","EPOCH":"2026-03-10T12:00:01.999296","MEAN_MOTION":15.12684951,"ECCENTRICITY":0.0001924,"INCLINATION":53.0786,"RA_OF_ASC_NODE":57.8934,"ARG_OF_PERICENTER":78.2497,"MEAN_ANOMALY":92.3519,"EPHEMERIS_TYPE":0,"CLASSIFICATION_TYPE":"U","NORAD_CAT_ID":47368,"ELEMENT_SET_NO":999,"REV_AT_EPOCH":582,"BSTAR":0.005051,"MEAN_MOTION_DOT":0.0009025,"MEAN_MOTION_DDOT":0},{"OBJECT_NAME":"STARLINK-2088","OBJECT_ID":"2021-005Y","EPOCH":"2026-03-10T08:37:55.197696","MEAN_MOTION":15.0639127,"ECCENTRICITY":0.0001431,"INCLINATION":53.056,"RA_OF_ASC_NODE":58.6118,"ARG_OF_PERICENTER":91.1481,"MEAN_ANOMALY":268.9672,"EPHEMERIS_TYPE":0,"CLASSIFICATION_TYPE":"U","NORAD_CAT_ID":47371,"ELEMENT_SET_NO":999,"REV_AT_EPOCH":28314,"BSTAR":8.6058e-5,"MEAN_MOTION_DOT":1.0e-5,"MEAN_MOTION_DDOT":0},{"OBJECT_NAME":"STARLINK-2092","OBJECT_ID":"2021-005AA","EPOCH":"2026-03-10T12:00:01.999296","MEAN_MOTION":15.12668472,"ECCENTRICITY":0.0002221,"INCLINATION":53.0779,"RA_OF_ASC_NODE":57.8971,"ARG_OF_PERICENTER":58.9945,"MEAN_ANOMALY":50.1938,"EPHEMERIS_TYPE":0,"CLASSIFICATION_TYPE":"U","NORAD_CAT_ID":47373,"ELEMENT_SET_NO":999,"REV_AT_EPOCH":562,"BSTAR":0.0052915,"MEAN_MOTION_DOT":0.00094576,"MEAN_MOTION_DDOT":0},{"OBJECT_NAME":"STARLINK-2093","OBJECT_ID":"2021-005AB","EPOCH":"2026-03-10T13:04:28.483104","MEAN_MOTION":15.65321205,"ECCENTRICITY":0.0003714,"INCLINATION":53.0521,"RA_OF_ASC_NODE":41.143,"ARG_OF_PERICENTER":116.2353,"MEAN_ANOMALY":243.9043,"EPHEMERIS_TYPE":0,"CLASSIFICATION_TYPE":"U","NORAD_CAT_ID":47374,"ELEMENT_SET_NO":999,"REV_AT_EPOCH":28340,"BSTAR":0.0010335,"MEAN_MOTION_DOT":0.00105563,"MEAN_MOTION_DDOT":0},{"OBJECT_NAME":"STARLINK-2094","OBJECT_ID":"2021-005AC","EPOCH":"2026-03-10T12:00:01.999296","MEAN_MOTION":15.11537498,"ECCENTRICITY":9.1e-5,"INCLINATION":53.0755,"RA_OF_ASC_NODE":57.9298,"ARG_OF_PERICENTER":101.5283,"MEAN_ANOMALY":208.6237,"EPHEMERIS_TYPE":0,"CLASSIFICATION_TYPE":"U","NORAD_CAT_ID":47375,"ELEMENT_SET_NO":999,"REV_AT_EPOCH":581,"BSTAR":0.075836,"MEAN_MOTION_DOT":0.01420949,"MEAN_MOTION_DDOT":0},{"OBJECT_NAME":"STARLINK-2096","OBJECT_ID":"2021-005AD","EPOCH":"2026-03-10T12:00:01.999296","MEAN_MOTION":15.13014214,"ECCENTRICITY":7.63e-5,"INCLINATION":53.0798,"RA_OF_ASC_NODE":57.881,"ARG_OF_PERICENTER":116.4815,"MEAN_ANOMALY":201.1311,"EPHEMERIS_TYPE":0,"CLASSIFICATION_TYPE":"U","NORAD_CAT_ID":47376,"ELEMENT_SET_NO":999,"REV_AT_EPOCH":581,"BSTAR":0.0048316,"MEAN_MOTION_DOT":0.00087078,"MEAN_MOTION_DDOT":0},{"OBJECT_NAME":"STARLINK-2097","OBJECT_ID":"2021-005AE","EPOCH":"2026-03-10T08:53:48.425568","MEAN_MOTION":15.06434494,"ECCENTRICITY":0.0001366,"INCLINATION":53.0564,"RA_OF_ASC_NODE":58.5612,"ARG_OF_PERICENTER":89.8565,"MEAN_ANOMALY":270.2581,"EPHEMERIS_TYPE":0,"CLASSIFICATION_TYPE":"U","NORAD_CAT_ID":47377,"ELEMENT_SET_NO":999,"REV_AT_EPOCH":28314,"BSTAR":0.0004543,"MEAN_MOTION_DOT":6.498e-5,"MEAN_MOTION_DDOT":0},{"OBJECT_NAME":"STARLINK-2098","OBJECT_ID":"2021-005AF","EPOCH":"2026-03-10T06:16:44.561568","MEAN_MOTION":15.30187581,"ECCENTRICITY":0.0001277,"INCLINATION":53.1598,"RA_OF_ASC_NODE":11.5089,"ARG_OF_PERICENTER":88.0467,"MEAN_ANOMALY":272.068,"EPHEMERIS_TYPE":0,"CLASSIFICATION_TYPE":"U","NORAD_CAT_ID":47378,"ELEMENT_SET_NO":999,"REV_AT_EPOCH":28380,"BSTAR":-2.208e-5,"MEAN_MOTION_DOT":-1.013e-5,"MEAN_MOTION_DDOT":0}]
